STARLINK-2135_new
1 17408C 21005BM  21326.12956051  .00004767  00000-0  31937-3 0  3268
2 17408  53.0543 233.1538 0002008  65.5982  77.2684 15.06394561    10
STARLINK-2135_old
1 27408C 21005BM  21325.13468350 -.00014995  00000-0 -10047-2 0  3251
2 27408  53.0546 237.6197 0002033  64.2045  80.4141 15.06412575    17
